STARLINK-2266           
1 47997U 21024W   25124.07268257 -.00002155  00000+0 -12581-3 0  9990
2 47997  53.0562 261.5454 0001375  87.8374 272.2773 15.06405096227725
STARLINK-2270           
1 48000U 21024Z   25124.16025608  .00001526  00000+0  12131-3 0  9997
2 48000  53.0525 191.3522 0002864  76.1468 283.9839 15.06419180228716
STARLINK-2263           
1 48003U 21024AC  25124.22339625  .00464387  00000+0  19448-2 0  9999
2 48003  53.0511 272.8578 0004505 315.0301  45.0356 15.83825323227563
STARLINK-2153           
1 48009U 21024AJ  25123.76813013  .00011522  00000+0  79095-3 0  9995
2 48009  53.0541 267.9075 0001227 105.5139 254.5986 15.06408187228071
STARLINK-2226           
1 48010U 21024AK  25124.17912846  .00003753  00000+0  27075-3 0  9995
2 48010  53.0536 286.0618 0001243  83.7263 276.3867 15.06397922227382
STARLINK-2284           
1 48016U 21024AR  25124.25002315  .00228506  00000+0  14006-2 0  9995
2 48016  53.0325 151.4970 0008694  10.6622 114.7567 15.76065002229275
STARLINK-2282           
1 48018U 21024AT  25123.91668981  .00134170  00000+0  30278-2 0  9998
2 48018  53.0293 246.0704 0006908 237.5389 206.9171 15.42249169  5787
STARLINK-2285           
1 48019U 21024AU  25124.07637187 -.00000609  00000+0 -21992-4 0  9997
2 48019  53.0539 261.5241 0001788  66.3975 293.7201 15.06396225227723
STARLINK-2301           
1 48021U 21024AW  25124.25002315  .00615006  00000+0  31581-1 0  9992
2 48021  53.0525 220.5237 0001248  89.8350 306.4853 15.13885563228316
STARLINK-2298           
1 48022U 21024AX  25123.76125653  .00007616  00000+0  52940-3 0  9995
2 48022  53.0545 283.2180 0001280  78.3005 281.8128 15.06413715227912
STARLINK-2292           
1 48023U 21024AY  25124.14824920 -.00000916  00000+0 -42578-4 0  9997
2 48023  53.0545 281.1986 0001540  91.3812 268.7353 15.06394380227442
STARLINK-2299           
1 48029U 21024BE  25124.12613150  .00001794  00000+0  13932-3 0  9996
2 48029  53.0535 281.2979 0001321  79.2719 280.8419 15.06403244227446
STARLINK-2404           
1 48093U 21027B   25124.10865207 -.00000410  00000+0 -86490-5 0  9997
2 48093  53.0533 111.5786 0001468  96.0403 264.0753 15.06395559225492
