[
  {
    "OBJECT_NAME": "STARLINK-2266",
    "OBJECT_ID": "2021-024W",
    "EPOCH": "2025-05-04T01:44:39.774048",
    "MEAN_MOTION": 15.06405096,
    "ECCENTRICITY": 0.0001375,
    "INCLINATION": 53.0562,
    "RA_OF_ASC_NODE": 261.5454,
    "ARG_OF_PERICENTER": 87.8374,
    "MEAN_ANOMALY": 272.2773,
    "EPHEMERIS_TYPE": 0,
    "CLASSIFICATION_TYPE": "U",
    "NORAD_CAT_ID": 47997,
    "ELEMENT_SET_NO": 999,
    "REV_AT_EPOCH": 22772,
    "BSTAR": -0.00012581,
    "MEAN_MOTION_DOT": -2.155e-05,
    "MEAN_MOTION_DDOT": 0
  },
  {
    "OBJECT_NAME": "STARLINK-2270",
    "OBJECT_ID": "2021-024Z",
    "EPOCH": "2025-05-04T03:50:46.125312",
    "MEAN_MOTION": 15.0641918,
    "ECCENTRICITY": 0.0002864,
    "INCLINATION": 53.0525,
    "RA_OF_ASC_NODE": 191.3522,
    "ARG_OF_PERICENTER": 76.1468,
    "MEAN_ANOMALY": 283.9839,
    "EPHEMERIS_TYPE": 0,
    "CLASSIFICATION_TYPE": "U",
    "NORAD_CAT_ID": 48000,
    "ELEMENT_SET_NO": 999,
    "REV_AT_EPOCH": 22871,
    "BSTAR": 0.00012131,
    "MEAN_MOTION_DOT": 1.526e-05,
    "MEAN_MOTION_DDOT": 0
  },
  {
    "OBJECT_NAME": "STARLINK-2263",
    "OBJECT_ID": "2021-024AC",
    "EPOCH": "2025-05-04T05:21:41.436000",
    "MEAN_MOTION": 15.83825323,
    "ECCENTRICITY": 0.0004505,
    "INCLINATION": 53.0511,
    "RA_OF_ASC_NODE": 272.8578,
    "ARG_OF_PERICENTER": 315.0301,
    "MEAN_ANOMALY": 45.0356,
    "EPHEMERIS_TYPE": 0,
    "CLASSIFICATION_TYPE": "U",
    "NORAD_CAT_ID": 48003,
    "ELEMENT_SET_NO": 999,
    "REV_AT_EPOCH": 22756,
    "BSTAR": 0.0019448,
    "MEAN_MOTION_DOT": 0.00464387,
    "MEAN_MOTION_DDOT": 0
  },
  {
    "OBJECT_NAME": "STARLINK-2153",
    "OBJECT_ID": "2021-024AJ",
    "EPOCH": "2025-05-03T18:26:06.443232",
    "MEAN_MOTION": 15.06408187,
    "ECCENTRICITY": 0.0001227,
    "INCLINATION": 53.0541,
    "RA_OF_ASC_NODE": 267.9075,
    "ARG_OF_PERICENTER": 105.5139,
    "MEAN_ANOMALY": 254.5986,
    "EPHEMERIS_TYPE": 0,
    "CLASSIFICATION_TYPE": "U",
    "NORAD_CAT_ID": 48009,
    "ELEMENT_SET_NO": 999,
    "REV_AT_EPOCH": 22807,
    "BSTAR": 0.00079095,
    "MEAN_MOTION_DOT": 0.00011522,
    "MEAN_MOTION_DDOT": 0
  },
  {
    "OBJECT_NAME": "STARLINK-2226",
    "OBJECT_ID": "2021-024AK",
    "EPOCH": "2025-05-04T04:17:56.698944",
    "MEAN_MOTION": 15.06397922,
    "ECCENTRICITY": 0.0001243,
    "INCLINATION": 53.0536,
    "RA_OF_ASC_NODE": 286.0618,
    "ARG_OF_PERICENTER": 83.7263,
    "MEAN_ANOMALY": 276.3867,
    "EPHEMERIS_TYPE": 0,
    "CLASSIFICATION_TYPE": "U",
    "NORAD_CAT_ID": 48010,
    "ELEMENT_SET_NO": 999,
    "REV_AT_EPOCH": 22738,
    "BSTAR": 0.00027075,
    "MEAN_MOTION_DOT": 3.753e-05,
    "MEAN_MOTION_DDOT": 0
  },
  {
    "OBJECT_NAME": "STARLINK-2284",
    "OBJECT_ID": "2021-024AR",
    "EPOCH": "2025-05-04T06:00:02.000160",
    "MEAN_MOTION": 15.76065002,
    "ECCENTRICITY": 0.0008694,
    "INCLINATION": 53.0325,
    "RA_OF_ASC_NODE": 151.497,
    "ARG_OF_PERICENTER": 10.6622,
    "MEAN_ANOMALY": 114.7567,
    "EPHEMERIS_TYPE": 0,
    "CLASSIFICATION_TYPE": "U",
    "NORAD_CAT_ID": 48016,
    "ELEMENT_SET_NO": 999,
    "REV_AT_EPOCH": 22927,
    "BSTAR": 0.0014006,
    "MEAN_MOTION_DOT": 0.00228506,
    "MEAN_MOTION_DDOT": 0
  },
  {
    "OBJECT_NAME": "STARLINK-2282",
    "OBJECT_ID": "2021-024AT",
    "EPOCH": "2025-05-03T22:00:01.999584",
    "MEAN_MOTION": 15.42249169,
    "ECCENTRICITY": 0.0006908,
    "INCLINATION": 53.0293,
    "RA_OF_ASC_NODE": 246.0704,
    "ARG_OF_PERICENTER": 237.5389,
    "MEAN_ANOMALY": 206.9171,
    "EPHEMERIS_TYPE": 0,
    "CLASSIFICATION_TYPE": "U",
    "NORAD_CAT_ID": 48018,
    "ELEMENT_SET_NO": 999,
    "REV_AT_EPOCH": 578,
    "BSTAR": 0.0030278,
    "MEAN_MOTION_DOT": 0.0013417,
    "MEAN_MOTION_DDOT": 0
  },
  {
    "OBJECT_NAME": "STARLINK-2285",
    "OBJECT_ID": "2021-024AU",
    "EPOCH": "2025-05-04T01:49:58.529568",
    "MEAN_MOTION": 15.06396225,
    "ECCENTRICITY": 0.0001788,
    "INCLINATION": 53.0539,
    "RA_OF_ASC_NODE": 261.5241,
    "ARG_OF_PERICENTER": 66.3975,
    "MEAN_ANOMALY": 293.7201,
    "EPHEMERIS_TYPE": 0,
    "CLASSIFICATION_TYPE": "U",
    "NORAD_CAT_ID": 48019,
    "ELEMENT_SET_NO": 999,
    "REV_AT_EPOCH": 22772,
    "BSTAR": -2.1992e-05,
    "MEAN_MOTION_DOT": -6.09e-06,
    "MEAN_MOTION_DDOT": 0
  },
  {
    "OBJECT_NAME": "STARLINK-2301",
    "OBJECT_ID": "2021-024AW",
    "EPOCH": "2025-05-04T06:00:02.000160",
    "MEAN_MOTION": 15.13885563,
    "ECCENTRICITY": 0.0001248,
    "INCLINATION": 53.0525,
    "RA_OF_ASC_NODE": 220.5237,
    "ARG_OF_PERICENTER": 89.835,
    "MEAN_ANOMALY": 306.4853,
    "EPHEMERIS_TYPE": 0,
    "CLASSIFICATION_TYPE": "U",
    "NORAD_CAT_ID": 48021,
    "ELEMENT_SET_NO": 999,
    "REV_AT_EPOCH": 22831,
    "BSTAR": 0.031581,
    "MEAN_MOTION_DOT": 0.00615006,
    "MEAN_MOTION_DDOT": 0
  },
  {
    "OBJECT_NAME": "STARLINK-2298",
    "OBJECT_ID": "2021-024AX",
    "EPOCH": "2025-05-03T18:16:12.564192",
    "MEAN_MOTION": 15.06413715,
    "ECCENTRICITY": 0.000128,
    "INCLINATION": 53.0545,
    "RA_OF_ASC_NODE": 283.218,
    "ARG_OF_PERICENTER": 78.3005,
    "MEAN_ANOMALY": 281.8128,
    "EPHEMERIS_TYPE": 0,
    "CLASSIFICATION_TYPE": "U",
    "NORAD_CAT_ID": 48022,
    "ELEMENT_SET_NO": 999,
    "REV_AT_EPOCH": 22791,
    "BSTAR": 0.0005294,
    "MEAN_MOTION_DOT": 7.616e-05,
    "MEAN_MOTION_DDOT": 0
  },
  {
    "OBJECT_NAME": "STARLINK-2292",
    "OBJECT_ID": "2021-024AY",
    "EPOCH": "2025-05-04T03:33:28.730880",
    "MEAN_MOTION": 15.0639438,
    "ECCENTRICITY": 0.000154,
    "INCLINATION": 53.0545,
    "RA_OF_ASC_NODE": 281.1986,
    "ARG_OF_PERICENTER": 91.3812,
    "MEAN_ANOMALY": 268.7353,
    "EPHEMERIS_TYPE": 0,
    "CLASSIFICATION_TYPE": "U",
    "NORAD_CAT_ID": 48023,
    "ELEMENT_SET_NO": 999,
    "REV_AT_EPOCH": 22744,
    "BSTAR": -4.2578e-05,
    "MEAN_MOTION_DOT": -9.16e-06,
    "MEAN_MOTION_DDOT": 0
  },
  {
    "OBJECT_NAME": "STARLINK-2299",
    "OBJECT_ID": "2021-024BE",
    "EPOCH": "2025-05-04T03:01:37.761600",
    "MEAN_MOTION": 15.06403244,
    "ECCENTRICITY": 0.0001321,
    "INCLINATION": 53.0535,
    "RA_OF_ASC_NODE": 281.2979,
    "ARG_OF_PERICENTER": 79.2719,
    "MEAN_ANOMALY": 280.8419,
    "EPHEMERIS_TYPE": 0,
    "CLASSIFICATION_TYPE": "U",
    "NORAD_CAT_ID": 48029,
    "ELEMENT_SET_NO": 999,
    "REV_AT_EPOCH": 22744,
    "BSTAR": 0.00013932,
    "MEAN_MOTION_DOT": 1.794e-05,
    "MEAN_MOTION_DDOT": 0
  },
  {
    "OBJECT_NAME": "STARLINK-2404",
    "OBJECT_ID": "2021-027B",
    "EPOCH": "2025-05-04T02:36:27.538848",
    "MEAN_MOTION": 15.06395559,
    "ECCENTRICITY": 0.0001468,
    "INCLINATION": 53.0533,
    "RA_OF_ASC_NODE": 111.5786,
    "ARG_OF_PERICENTER": 96.0403,
    "MEAN_ANOMALY": 264.0753,
    "EPHEMERIS_TYPE": 0,
    "CLASSIFICATION_TYPE": "U",
    "NORAD_CAT_ID": 48093,
    "ELEMENT_SET_NO": 999,
    "REV_AT_EPOCH": 22549,
    "BSTAR": -8.649e-06,
    "MEAN_MOTION_DOT": -4.1e-06,
    "MEAN_MOTION_DDOT": 0
  }
]